NORAD_CAT_ID,OBJECT_NAME,OBJECT_TYPE,EPOCH,MEAN_MOTION,ECCENTRICITY,INCLINATION,RA_OF_ASC_NODE,ARG_OF_PERICENTER,MEAN_ANOMALY,BSTAR,MEAN_MOTION_DOT,MEAN_MOTION_DDOT,TLE_LINE0,TLE_LINE1,TLE_LINE2,SEMIMAJOR_AXIS,PERIOD,APOGEE,PERIGEE,DECAYED
55749.0,STARLINK-5560,PAYLOAD,2024-05-22 06:15:07,14.98332927,0.0002538,70.0005,99.542,259.9266,100.1607,9.9144e-05,1.09e-05,0.0,0 STARLINK-5560,1 55749U 23028J   24143.26050770  .00001090  00000-0  99144-4 0  9997,2 55749  70.0005  99.5420 0002538 259.9266 100.1607 14.98332927 67714,6950.184,96.107,573.813,570.285,0.0
55749.0,STARLINK-5560,PAYLOAD,2024-05-22 20:40:20,14.98330395,0.0002504,70.0005,98.0267,259.3667,100.721,0.00010534,1.164e-05,0.0,0 STARLINK-5560,1 55749U 23028J   24143.86134846  .00001164  00000-0  10534-3 0  9997,2 55749  70.0005  98.0267 0002504 259.3667 100.7210 14.98330395 67802,6950.192,96.107,573.797,570.316,0.0
55749.0,STARLINK-5560,PAYLOAD,2024-05-23 04:41:01,14.98327499,0.0002576,70.0004,97.185,259.4345,100.6524,5.341e-05,5.44e-06,0.0,0 STARLINK-5560,1 55749U 23028J   24144.19515170  .00000544  00000-0  53410-4 0  9999,2 55749  70.0004  97.1850 0002576 259.4345 100.6524 14.98327499 67855,6950.201,96.107,573.856,570.275,0.0
55749.0,STARLINK-5560,PAYLOAD,2024-05-23 06:17:09,14.98328782,0.0002787,69.9998,97.0163,268.2678,91.8162,6.5888e-05,6.93e-06,0.0,0 STARLINK-5560,1 55749U 23028J   24144.26191084  .00000693  00000-0  65888-4 0  9998,2 55749  69.9998  97.0163 0002787 268.2678  91.8162 14.98328782 67867,6950.197,96.107,573.999,570.125,0.0
55749.0,STARLINK-5560,PAYLOAD,2024-05-24 04:42:59,14.98360321,0.0002772,70.0003,94.6601,255.2684,104.8168,0.00033786,3.944e-05,0.0,0 STARLINK-5560,1 55749U 23028J   24145.19651646  .00003944  00000-0  33786-3 0  9999,2 55749  70.0003  94.6601 0002772 255.2684 104.8168 14.98360321 68007,6950.099,96.105,573.891,570.038,0.0
55749.0,STARLINK-5560,PAYLOAD,2024-05-24 06:19:06,14.98361937,0.0002816,70.0003,94.4919,256.9752,103.1093,0.00034774,4.062e-05,0.0,0 STARLINK-5560,1 55749U 23028J   24145.26327393  .00004062  00000-0  34774-3 0  9996,2 55749  70.0003  94.4919 0002816 256.9752 103.1093 14.98361937 68014,6950.094,96.105,573.916,570.002,0.0
55749.0,STARLINK-5560,PAYLOAD,2024-05-24 20:44:22,14.98329196,0.0003139,69.9989,92.9758,291.0557,69.0266,-3.6808e-05,-5.32e-06,0.0,0 STARLINK-5560,1 55749U 23028J   24145.86414402 -.00000532  00000-0 -36808-4 0  9991,2 55749  69.9989  92.9758 0003139 291.0557  69.0266 14.98329196 68103,6950.195,96.107,574.242,569.879,0.0
55749.0,STARLINK-5560,PAYLOAD,2024-05-24 22:20:31,14.98307988,0.0003654,69.9989,92.8075,281.8665,78.2084,-0.00027624,-3.386e-05,0.0,0 STARLINK-5560,1 55749U 23028J   24145.93092046 -.00003386  00000-0 -27624-3 0  9990,2 55749  69.9989  92.8075 0003654 281.8665  78.2084 14.98307988 68119,6950.261,96.108,574.666,569.586,0.0
55749.0,STARLINK-5560,PAYLOAD,2024-05-25 04:45:03,14.98311515,0.0003105,69.9991,92.1346,273.9134,86.167,-0.00022154,-2.734e-05,0.0,0 STARLINK-5560,1 55749U 23028J   24146.19795931 -.00002734  00000-0 -22154-3 0  9991,2 55749  69.9991  92.1346 0003105 273.9134  86.1670 14.98311515 68154,6950.25,96.108,574.273,569.957,0.0
55749.0,STARLINK-5560,PAYLOAD,2024-05-25 06:21:11,14.98312648,0.0003102,69.9992,91.9669,272.6632,87.4172,-0.00020412,-2.527e-05,0.0,0 STARLINK-5560,1 55749U 23028J   24146.26471881 -.00002527  00000-0 -20412-3 0  9999,2 55749  69.9992  91.9669 0003102 272.6632  87.4172 14.98312648 68166,6950.247,96.108,574.268,569.956,0.0
55749.0,STARLINK-5560,PAYLOAD,2024-05-25 20:46:23,14.98332938,0.0003383,69.9985,90.4524,271.486,88.5911,-0.00036716,-4.472e-05,0.0,0 STARLINK-5560,1 55749U 23028J   24146.86555283 -.00004472  00000-0 -36716-3 0  9999,2 55749  69.9985  90.4524 0003383 271.4860  88.5911 14.98332938 68250,6950.184,96.107,574.4,569.698,0.0
55749.0,STARLINK-5560,PAYLOAD,2024-05-26 04:47:03,14.98337471,0.0003004,69.9993,89.6093,269.4919,90.5896,-0.00021246,-2.628e-05,0.0,0 STARLINK-5560,1 55749U 23028J   24147.19934574 -.00002628  00000-0 -21246-3 0  9993,2 55749  69.9993  89.6093 0003004 269.4919  90.5896 14.98337471 68300,6950.17,96.107,574.123,569.947,0.0
55749.0,STARLINK-5560,PAYLOAD,2024-05-26 06:23:11,14.98329765,0.0002934,70.0009,89.4416,269.7674,90.3149,-0.00017162,-2.14e-05,0.0,0 STARLINK-5560,1 55749U 23028J   24147.26610569 -.00002140  00000-0 -17162-3 0  9997,2 55749  70.0009  89.4416 0002934 269.7674  90.3149 14.98329765 68317,6950.194,96.107,574.098,570.019,0.0
55749.0,STARLINK-5560,PAYLOAD,2024-05-26 20:48:24,14.983262,0.0002943,70.0005,87.9262,273.7124,86.3699,0.00061481,7.25e-05,0.0,0 STARLINK-5560,1 55749U 23028J   24147.86695219  .00007250  00000-0  61481-3 0  9996,2 55749  70.0005  87.9262 0002943 273.7124  86.3699 14.98326200 68406,6950.205,96.107,574.115,570.024,0.0
55749.0,STARLINK-5560,PAYLOAD,2024-05-26 22:24:32,14.98328749,0.0002945,70.0005,87.7578,273.8953,86.1869,0.0006727,7.942e-05,0.0,0 STARLINK-5560,1 55749U 23028J   24147.93371225  .00007942  00000-0  67270-3 0  9992,2 55749  70.0005  87.7578 0002945 273.8953  86.1869 14.98328749 68415,6950.197,96.107,574.109,570.015,0.0
55749.0,STARLINK-5560,PAYLOAD,2024-05-27 04:49:04,14.98353699,0.0002866,70.0017,87.0852,272.8558,87.2273,0.0011197,0.00013301,0.0,0 STARLINK-5560,1 55749U 23028J   24148.20074755  .00013301  00000-0  11197-2 0  9993,2 55749  70.0017  87.0852 0002866 272.8558  87.2273 14.98353699 68455,6950.12,96.105,573.977,569.993,0.0
55749.0,STARLINK-5560,PAYLOAD,2024-05-27 12:49:44,14.98340849,0.0001883,70.0042,86.2427,274.846,85.2484,0.0003915,4.583e-05,0.0,0 STARLINK-5560,1 55749U 23028J   24148.53454706  .00004583  00000-0  39150-3 0  9999,2 55749  70.0042  86.2427 0001883 274.8460  85.2484 14.98340849 68505,6950.159,96.106,573.333,570.716,0.0
55749.0,STARLINK-5560,PAYLOAD,2024-05-27 22:26:33,14.98339664,0.0002482,70.0022,85.234,265.9962,94.0913,0.00022121,2.548e-05,0.0,0 STARLINK-5560,1 55749U 23028J   24148.93510593  .00002548  00000-0  22121-3 0  9999,2 55749  70.0022  85.2340 0002482 265.9962  94.0913 14.98339664 68564,6950.163,96.106,573.753,570.303,0.0
55749.0,STARLINK-5560,PAYLOAD,2024-05-28 04:51:05,14.98332105,0.0002472,70.0022,84.5604,265.6597,94.428,1.8527e-05,1.28e-06,0.0,0 STARLINK-5560,1 55749U 23028J   24149.20214786  .00000128  00000-0  18527-4 0  9993,2 55749  70.0022  84.5604 0002472 265.6597  94.4280 14.98332105 68608,6950.186,96.107,573.769,570.333,0.0
55749.0,STARLINK-5560,PAYLOAD,2024-05-28 12:51:45,14.98330912,0.0002597,70.0022,83.7192,250.7053,109.3825,0.00018866,2.159e-05,0.0,0 STARLINK-5560,1 55749U 23028J   24149.53594817  .00002159  00000-0  18866-3 0  9996,2 55749  70.0022  83.7192 0002597 250.7053 109.3825 14.98330912 68651,6950.19,96.107,573.86,570.25,0.0
55749.0,STARLINK-5560,PAYLOAD,2024-05-28 22:28:33,14.98336531,0.0002921,70.0008,82.7086,266.65,93.4325,-5.871e-05,-7.94e-06,0.0,0 STARLINK-5560,1 55749U 23028J   24149.93650400 -.00000794  00000-0 -58710-4 0  9999,2 55749  70.0008  82.7086 0002921 266.6500  93.4325 14.98336531 68718,6950.173,96.107,574.068,570.008,0.0
55749.0,STARLINK-5560,PAYLOAD,2024-05-29 04:53:06,14.98335141,0.0002512,70.0008,82.036,249.6955,110.3934,2.9741e-05,2.62e-06,0.0,0 STARLINK-5560,1 55749U 23028J   24150.20354552  .00000262  00000-0  29741-4 0  9990,2 55749  70.0008  82.0360 0002512 249.6955 110.3934 14.98335141 68752,6950.177,96.107,573.788,570.296,0.0
55749.0,STARLINK-5560,PAYLOAD,2024-05-29 20:54:27,14.98329451,0.0002774,70.0003,80.3514,267.4635,92.6206,9.3482e-05,1.023e-05,0.0,0 STARLINK-5560,1 55749U 23028J   24150.87114819  .00001023  00000-0  93482-4 0  9992,2 55749  70.0003  80.3514 0002774 267.4635  92.6206 14.98329451 68854,6950.195,96.107,573.988,570.132,0.0
55749.0,STARLINK-5560,PAYLOAD,2024-05-29 22:30:35,14.98329427,0.0002782,70.0003,80.1831,267.3655,92.7185,8.8563e-05,9.64e-06,0.0,0 STARLINK-5560,1 55749U 23028J   24150.93790824  .00000964  00000-0  88563-4 0  9992,2 55749  70.0003  80.1831 0002782 267.3655  92.7185 14.98329427 68865,6950.195,96.107,573.993,570.126,0.0
55749.0,STARLINK-5560,PAYLOAD,2024-05-30 04:55:07,14.98334037,0.0002713,70.0003,79.5102,268.1563,91.9286,0.0001122,1.246e-05,0.0,0 STARLINK-5560,1 55749U 23028J   24151.20494554  .00001246  00000-0  11220-3 0  9993,2 55749  70.0003  79.5102 0002713 268.1563  91.9286 14.98334037 68900,6950.18,96.107,573.931,570.16,0.0
55749.0,STARLINK-5560,PAYLOAD,2024-05-30 22:32:35,14.98336917,0.0002748,70.0003,77.6589,267.8988,92.1856,0.000138,1.554e-05,0.0,0 STARLINK-5560,1 55749U 23028J   24151.93930172  .00001554  00000-0  13800-3 0  9992,2 55749  70.0003  77.6589 0002748 267.8988  92.1856 14.98336917 69011,6950.172,96.107,573.946,570.127,0.0
55749.0,STARLINK-5560,PAYLOAD,2024-05-31 04:57:07,14.98339497,0.000272,70.0005,76.9859,268.0471,92.0377,0.00016395,1.864e-05,0.0,0 STARLINK-5560,1 55749U 23028J   24152.20633892  .00001864  00000-0  16395-3 0  9998,2 55749  70.0005  76.9859 0002720 268.0471  92.0377 14.98339497 69052,6950.164,96.106,573.919,570.138,0.0
55749.0,STARLINK-5560,PAYLOAD,2024-05-31 20:58:28,14.9833409,0.0002725,70.0004,75.302,269.2879,90.7968,9.2054e-05,1.006e-05,0.0,0 STARLINK-5560,1 55749U 23028J   24152.87394175  .00001006  00000-0  92054-4 0  9994,2 55749  70.0004  75.3020 0002725 269.2879  90.7968 14.98334090 69150,6950.18,96.107,573.939,570.151,0.0
55749.0,STARLINK-5560,PAYLOAD,2024-05-31 22:34:36,14.98332265,0.0002758,70.0003,75.1337,268.9957,91.0886,7.3363e-05,7.83e-06,0.0,0 STARLINK-5560,1 55749U 23028J   24152.94070302  .00000783  00000-0  73363-4 0  9998,2 55749  70.0003  75.1337 0002758 268.9957  91.0886 14.98332265 69163,6950.186,96.107,573.968,570.134,0.0
55749.0,STARLINK-5560,PAYLOAD,2024-06-01 04:59:08,14.98348624,0.0002723,70.0006,74.4611,266.5274,93.5574,-0.00019802,-2.456e-05,0.0,0 STARLINK-5560,1 55749U 23028J   24153.20773569 -.00002456  00000-0 -19802-3 0  9991,2 55749  70.0006  74.4611 0002723 266.5274  93.5574 14.98348624 69203,6950.135,96.106,573.893,570.108,0.0
